CCSDS_OMM_VERS = 2.0
CREATION_DATE  = 
ORIGINATOR     = 

OBJECT_NAME    = STARLINK-1643
OBJECT_ID      = 2020-057V
CENTER_NAME    = EARTH
REF_FRAME      = TEME
TIME_SYSTEM    = UTC
MEAN_ELEMENT_THEORY = SGP/SGP4

EPOCH          = 2020-09-09T06:00:00.999648
MEAN_MOTION    = 15.62929345
ECCENTRICITY   = .0001446
INCLINATION    = 53.0016
RA_OF_ASC_NODE = 333.9173
ARG_OF_PERICENTER = 43.1186
MEAN_ANOMALY   = 137.1476

EPHEMERIS_TYPE = 0
CLASSIFICATION_TYPE = U
NORAD_CAT_ID   = 46136
ELEMENT_SET_NO = 999
REV_AT_EPOCH   = 177
BSTAR          = -.14435E-1
MEAN_MOTION_DOT = -1.19782E-2
MEAN_MOTION_DDOT = 0

CCSDS_OMM_VERS = 2.0
CREATION_DATE  = 
ORIGINATOR     = 

OBJECT_NAME    = STARLINK-1586
OBJECT_ID      = 2020-057W
CENTER_NAME    = EARTH
REF_FRAME      = TEME
TIME_SYSTEM    = UTC
MEAN_ELEMENT_THEORY = SGP/SGP4

EPOCH          = 2020-09-09T12:00:00.999648
MEAN_MOTION    = 15.66315341
ECCENTRICITY   = .0001340
INCLINATION    = 52.9996
RA_OF_ASC_NODE = 332.3781
ARG_OF_PERICENTER = 47.8148
MEAN_ANOMALY   = 239.6698

EPHEMERIS_TYPE = 0
CLASSIFICATION_TYPE = U
NORAD_CAT_ID   = 46137
ELEMENT_SET_NO = 999
REV_AT_EPOCH   = 412
BSTAR          = -.17290E-4
MEAN_MOTION_DOT = -2.384E-5
MEAN_MOTION_DDOT = 0

CCSDS_OMM_VERS = 2.0
CREATION_DATE  = 
ORIGINATOR     = 

OBJECT_NAME    = STARLINK-1590
OBJECT_ID      = 2020-057X
CENTER_NAME    = EARTH
REF_FRAME      = TEME
TIME_SYSTEM    = UTC
MEAN_ELEMENT_THEORY = SGP/SGP4

EPOCH          = 2020-09-09T12:00:00.999648
MEAN_MOTION    = 15.62753081
ECCENTRICITY   = .0001610
INCLINATION    = 52.9986
RA_OF_ASC_NODE = 332.7589
ARG_OF_PERICENTER = 60.5476
MEAN_ANOMALY   = 40.8762

EPHEMERIS_TYPE = 0
CLASSIFICATION_TYPE = U
NORAD_CAT_ID   = 46138
ELEMENT_SET_NO = 999
REV_AT_EPOCH   = 412
BSTAR          = -.14988E-5
MEAN_MOTION_DOT = -6.72E-6
MEAN_MOTION_DDOT = 0

CCSDS_OMM_VERS = 2.0
CREATION_DATE  = 
ORIGINATOR     = 

OBJECT_NAME    = STARLINK-1592
OBJECT_ID      = 2020-057Y
CENTER_NAME    = EARTH
REF_FRAME      = TEME
TIME_SYSTEM    = UTC
MEAN_ELEMENT_THEORY = SGP/SGP4

EPOCH          = 2020-09-09T12:00:00.999648
MEAN_MOTION    = 15.62785704
ECCENTRICITY   = .0001368
INCLINATION    = 53.0008
RA_OF_ASC_NODE = 332.7298
ARG_OF_PERICENTER = 56.5092
MEAN_ANOMALY   = 56.3257

EPHEMERIS_TYPE = 0
CLASSIFICATION_TYPE = U
NORAD_CAT_ID   = 46139
ELEMENT_SET_NO = 999
REV_AT_EPOCH   = 412
BSTAR          = -.38675E-3
MEAN_MOTION_DOT = -3.5836E-4
MEAN_MOTION_DDOT = 0

CCSDS_OMM_VERS = 2.0
CREATION_DATE  = 
ORIGINATOR     = 

OBJECT_NAME    = STARLINK-1594
OBJECT_ID      = 2020-057Z
CENTER_NAME    = EARTH
REF_FRAME      = TEME
TIME_SYSTEM    = UTC
MEAN_ELEMENT_THEORY = SGP/SGP4

EPOCH          = 2020-09-09T12:00:00.999648
MEAN_MOTION    = 15.64058858
ECCENTRICITY   = .0004949
INCLINATION    = 52.9990
RA_OF_ASC_NODE = 332.7032
ARG_OF_PERICENTER = 293.3802
MEAN_ANOMALY   = 194.8672

EPHEMERIS_TYPE = 0
CLASSIFICATION_TYPE = U
NORAD_CAT_ID   = 46140
ELEMENT_SET_NO = 999
REV_AT_EPOCH   = 412
BSTAR          = -.11085E-3
MEAN_MOTION_DOT = -1.1225E-4
MEAN_MOTION_DDOT = 0

CCSDS_OMM_VERS = 2.0
CREATION_DATE  = 
ORIGINATOR     = 

OBJECT_NAME    = STARLINK-1596
OBJECT_ID      = 2020-057AA
CENTER_NAME    = EARTH
REF_FRAME      = TEME
TIME_SYSTEM    = UTC
MEAN_ELEMENT_THEORY = SGP/SGP4

EPOCH          = 2020-09-09T12:00:00.999648
MEAN_MOTION    = 15.62827508
ECCENTRICITY   = .0004910
INCLINATION    = 52.9991
RA_OF_ASC_NODE = 332.7194
ARG_OF_PERICENTER = 282.7106
MEAN_ANOMALY   = 197.2280

EPHEMERIS_TYPE = 0
CLASSIFICATION_TYPE = U
NORAD_CAT_ID   = 46141
ELEMENT_SET_NO = 999
REV_AT_EPOCH   = 412
BSTAR          = -.11825E-2
MEAN_MOTION_DOT = -1.07778E-3
MEAN_MOTION_DDOT = 0

CCSDS_OMM_VERS = 2.0
CREATION_DATE  = 
ORIGINATOR     = 

OBJECT_NAME    = STARLINK-1597
OBJECT_ID      = 2020-057AB
CENTER_NAME    = EARTH
REF_FRAME      = TEME
TIME_SYSTEM    = UTC
MEAN_ELEMENT_THEORY = SGP/SGP4

EPOCH          = 2020-09-09T06:00:00.999648
MEAN_MOTION    = 15.60190779
ECCENTRICITY   = .0001276
INCLINATION    = 53.0000
RA_OF_ASC_NODE = 333.9853
ARG_OF_PERICENTER = 28.4859
MEAN_ANOMALY   = 117.8893

EPHEMERIS_TYPE = 0
CLASSIFICATION_TYPE = U
NORAD_CAT_ID   = 46142
ELEMENT_SET_NO = 999
REV_AT_EPOCH   = 177
BSTAR          = -.15179E-1
MEAN_MOTION_DOT = -1.138013E-2
MEAN_MOTION_DDOT = 0

CCSDS_OMM_VERS = 2.0
CREATION_DATE  = 
ORIGINATOR     = 

OBJECT_NAME    = STARLINK-1599
OBJECT_ID      = 2020-057AC
CENTER_NAME    = EARTH
REF_FRAME      = TEME
TIME_SYSTEM    = UTC
MEAN_ELEMENT_THEORY = SGP/SGP4

EPOCH          = 2020-09-09T06:00:00.999648
MEAN_MOTION    = 15.66243954
ECCENTRICITY   = .0001111
INCLINATION    = 52.9992
RA_OF_ASC_NODE = 333.5944
ARG_OF_PERICENTER = 51.4887
MEAN_ANOMALY   = 270.1335

EPHEMERIS_TYPE = 0
CLASSIFICATION_TYPE = U
NORAD_CAT_ID   = 46143
ELEMENT_SET_NO = 999
REV_AT_EPOCH   = 177
BSTAR          = .21701E-3
MEAN_MOTION_DOT = 2.2323E-4
MEAN_MOTION_DDOT = 0

CCSDS_OMM_VERS = 2.0
CREATION_DATE  = 
ORIGINATOR     = 

OBJECT_NAME    = STARLINK-1606
OBJECT_ID      = 2020-057AD
CENTER_NAME    = EARTH
REF_FRAME      = TEME
TIME_SYSTEM    = UTC
MEAN_ELEMENT_THEORY = SGP/SGP4

EPOCH          = 2020-09-09T12:00:00.999648
MEAN_MOTION    = 15.66290085
ECCENTRICITY   = .0001486
INCLINATION    = 53.0000
RA_OF_ASC_NODE = 332.3970
ARG_OF_PERICENTER = 57.1553
MEAN_ANOMALY   = 222.0760

EPHEMERIS_TYPE = 0
CLASSIFICATION_TYPE = U
NORAD_CAT_ID   = 46144
ELEMENT_SET_NO = 999
REV_AT_EPOCH   = 412
BSTAR          = -.20036E-4
MEAN_MOTION_DOT = -2.672E-5
MEAN_MOTION_DDOT = 0

CCSDS_OMM_VERS = 2.0
CREATION_DATE  = 
ORIGINATOR     = 

OBJECT_NAME    = STARLINK-1607
OBJECT_ID      = 2020-057AE
CENTER_NAME    = EARTH
REF_FRAME      = TEME
TIME_SYSTEM    = UTC
MEAN_ELEMENT_THEORY = SGP/SGP4

EPOCH          = 2020-09-09T12:00:00.999648
MEAN_MOTION    = 15.61425228
ECCENTRICITY   = .0001366
INCLINATION    = 53.0004
RA_OF_ASC_NODE = 332.7192
ARG_OF_PERICENTER = 54.8623
MEAN_ANOMALY   = 82.0939

EPHEMERIS_TYPE = 0
CLASSIFICATION_TYPE = U
NORAD_CAT_ID   = 46145
ELEMENT_SET_NO = 999
REV_AT_EPOCH   = 412
BSTAR          = -.86984E-3
MEAN_MOTION_DOT = -7.5463E-4
MEAN_MOTION_DDOT = 0

CCSDS_OMM_VERS = 2.0
CREATION_DATE  = 
ORIGINATOR     = 

OBJECT_NAME    = STARLINK-1608
OBJECT_ID      = 2020-057AF
CENTER_NAME    = EARTH
REF_FRAME      = TEME
TIME_SYSTEM    = UTC
MEAN_ELEMENT_THEORY = SGP/SGP4

EPOCH          = 2020-09-09T12:00:00.999648
MEAN_MOTION    = 15.62777372
ECCENTRICITY   = .0001322
INCLINATION    = 53.0012
RA_OF_ASC_NODE = 332.7324
ARG_OF_PERICENTER = 58.2102
MEAN_ANOMALY   = 57.0411

EPHEMERIS_TYPE = 0
CLASSIFICATION_TYPE = U
NORAD_CAT_ID   = 46146
ELEMENT_SET_NO = 999
REV_AT_EPOCH   = 412
BSTAR          = .17662E-4
MEAN_MOTION_DOT = 1.084E-5
MEAN_MOTION_DDOT = 0

CCSDS_OMM_VERS = 2.0
CREATION_DATE  = 
ORIGINATOR     = 

OBJECT_NAME    = STARLINK-1611
OBJECT_ID      = 2020-057AG
CENTER_NAME    = EARTH
REF_FRAME      = TEME
TIME_SYSTEM    = UTC
MEAN_ELEMENT_THEORY = SGP/SGP4

EPOCH          = 2020-09-09T12:00:00.999648
MEAN_MOTION    = 15.62818226
ECCENTRICITY   = .0002373
INCLINATION    = 53.0017
RA_OF_ASC_NODE = 332.7258
ARG_OF_PERICENTER = 320.2418
MEAN_ANOMALY   = 161.4177

EPHEMERIS_TYPE = 0
CLASSIFICATION_TYPE = U
NORAD_CAT_ID   = 46147
ELEMENT_SET_NO = 999
REV_AT_EPOCH   = 412
BSTAR          = -.12927E-2
MEAN_MOTION_DOT = -1.1752E-3
MEAN_MOTION_DDOT = 0

